CUBEBUG-2 (LO-74)       
1 39440U 13066AA  26163.84301876  .00004525  00000+0  41877-3 0  9996
2 39440  97.8900 112.8027 0058755  43.0424 317.5369 14.93728016676344
FUNCUBE-1 (AO-73)       
1 39444U 13066AE  26163.81395881  .00007072  00000+0  43981-3 0  9994
2 39444  97.8264 135.1682 0035292 216.3292 143.5540 15.09437538679003
UWE-3                   
1 39446U 13066AG  26163.80415188  .00004670  00000+0  40178-3 0  9994
2 39446  97.8686 119.8484 0048274 335.7540  24.1410 14.96991298676929
UNISAT-6                
1 40012U 14033C   26163.22513884  .00003057  00000+0  33075-3 0  9994
2 40012  97.7868 316.0249 0046404  85.2334 275.4179 14.88220526645426
DUCHIFAT-1              
1 40021U 14033M   26163.09548070  .00095136  00000+0  10168-2 0  9990
2 40021  98.0477 221.5443 0003958 124.7307 235.4323 15.63580933654958
QB50P1                  
1 40025U 14033R   26163.27290574  .00008177  00000+0  40334-3 0  9995
2 40025  98.0962 174.0743 0007350 234.6928 125.3617 15.18187953652288
LILACSAT-2              
1 40908U 15049K   26163.82169484  .00018630  00000+0  31865-3 0  9993
2 40908  97.4655 200.4974 0005323 266.0927  93.9716 15.51306623595073
FOX-1A (AO-85)          
1 40967U 15058D   26162.71824684  .00002264  00000+0  20997-3 0  9995
2 40967  64.7758 295.9784 0130128  58.7261 302.6519 14.90943463112758
CAS-2T & KS-1Q          
1 41847U 16066G   26163.80788914  .00001644  00000+0  23742-3 0  9991
2 41847  98.3820 239.5941 0342652 142.7227 219.8287 14.44680695504166
RADFXSAT (FOX-1B)       
1 43017U 17073E   26163.18070044  .00010038  00000+0  43795-3 0  9997
2 43017  97.4717  30.4982 0150347 346.5871  13.1381 15.12639688464631
DIWATA-2B               
1 43678U 18084H   26163.83514209  .00002703  00000+0  21983-3 0  9996
2 43678  98.1180 359.8551 0012232 184.2462 175.8658 15.00433168415562
ES'HAIL 2               
1 43700U 18090A   26163.77683866  .00000158  00000+0  00000+0 0  9993
2 43700   0.0020 358.2401 0001494 123.3765  84.9580  1.00268357 27630
FOX-1CLIFF (AO-95)      
1 43770U 18099N   26163.16185761  .00012073  00000+0  46305-3 0  9994
2 43770  97.4395 223.4266 0008513  16.6170 343.5346 15.26608215412453
ITASAT                  
1 43786U 18099AE  26163.08115618  .00006413  00000+0  30911-3 0  9993
2 43786  97.4034 214.6947 0012663  18.3409 341.8279 15.18993689412137
JY1SAT (JO-97)          
1 43803U 18099AX  26163.13681758  .00015570  00000+0  48284-3 0  9998
2 43803  97.4133 225.9535 0004126 287.1205  72.9585 15.33493153412859
UWE-4                   
1 43880U 18111E   26163.03704896  .00037924  00000+0  78108-3 0  9991
2 43880  97.5852  91.1918 0006446   4.5905 355.5402 15.45812047409984
TIANYAN 01              
1 44881U 19093C   26163.80404896  .00000345  00000+0  44917-4 0  9994
2 44881  97.7533 236.1427 0014972  99.7681 260.5226 14.86510113350763
RS-44 & BREEZE-KM R/B   
1 44909U 19096E   26163.86157388  .00000032  00000+0  79705-4 0  9991
2 44909  82.5218 342.5799 0218000 154.2510 206.9640 12.79748794301797
SALSAT                  
1 46495U 20068K   26163.76299022  .00008507  00000+0  29790-3 0  9998
2 46495  97.8846 166.5583 0008406 326.8032  33.2678 15.29738569314684
XW-3 (CAS-9)            
1 50466U 21131B   26163.88945514  .00000338  00000+0  11807-3 0  9994
2 50466  98.4976 256.3023 0005304 106.1028 254.0745 14.41353089234494
GREENCUBE (IO-117)      
1 53109U 22080E   26152.46502029 -.00000003  00000+0  00000+0 0  9996
2 53109  70.1435 303.7143 0008869 293.3663  66.6064  6.42583280 91055
UMKA 1 (RS40S)          
1 57172U 23091G   26163.81710698  .00006063  00000+0  27774-3 0  9999
2 57172  97.5058 222.5309 0014072 131.2604 228.9846 15.20768856163346
CUBESX-HSE 3 (RS42S)    
1 57178U 23091N   26163.86062707  .00014589  00000+0  48660-3 0  9990
2 57178  97.5101 229.3931 0012120 107.9696 252.2867 15.31109376163767
MONITOR-3 (RS58S)       
1 57180U 23091Q   26163.81010244  .00010956  00000+0  40567-3 0  9999
2 57180  97.5092 227.2239 0013115 114.3240 245.9370 15.27755885163629
MONITOR-4 (RS57S)       
1 57182U 23091S   26163.78940411  .00011048  00000+0  40797-3 0  9993
2 57182  97.5086 227.1740 0013121 114.6390 245.6218 15.27844651163624
MONITOR-2 (RS39S)       
1 57184U 23091U   26163.83289104  .00005340  00000+0  25893-3 0  9994
2 57184  97.5079 222.1435 0012598 124.4205 235.8222 15.18871537163297
SVYATOBOR 1 (RS60S)     
1 57187U 23091X   26163.79873764  .00009662  00000+0  37179-3 0  9994
2 57187  97.5097 227.5912 0010924 107.5280 252.7153 15.26542243163643
VIZARD-METEO (RS38S)    
1 57189U 23091Z   26163.84786405  .00017390  00000+0  49908-3 0  9997
2 57189  97.5101 233.2457 0008515  90.5208 269.7011 15.35892638164023
POLYTECH-UNIVERSE 3 (R*)
1 57191U 23091AB  26163.86066832  .00005157  00000+0  24839-3 0  9991
2 57191  97.5055 221.6758 0016630 140.6195 219.6252 15.19072560163293
UTMN 2 (RS27S)          
1 57203U 23091AP  26163.81526302  .00013715  00000+0  44633-3 0  9996
2 57203  97.5096 230.9756 0009441  96.7900 263.4416 15.31947365163871
