OBJECT_NAME,OBJECT_ID,EPOCH,MEAN_MOTION,ECCENTRICITY,INCLINATION,RA_OF_ASC_NODE,ARG_OF_PERICENTER,MEAN_ANOMALY,EPHEMERIS_TYPE,CLASSIFICATION_TYPE,NORAD_CAT_ID,ELEMENT_SET_NO,REV_AT_EPOCH,BSTAR,MEAN_MOTION_DOT,MEAN_MOTION_DDOT
CUBEBUG-2 (LO-74),2013-066AA,2026-06-12T20:13:56.820864,14.93728016,.0058755,97.8900,112.8027,43.0424,317.5369,0,U,39440,999,67634,.41877E-3,.4525E-4,0
FUNCUBE-1 (AO-73),2013-066AE,2026-06-12T19:32:06.041184,15.09437538,.0035292,97.8264,135.1682,216.3292,143.5540,0,U,39444,999,67900,.43981E-3,.7072E-4,0
UWE-3,2013-066AG,2026-06-12T19:17:58.722432,14.96991298,.0048274,97.8686,119.8484,335.7540,24.1410,0,U,39446,999,67692,.40178E-3,.467E-4,0
UNISAT-6,2014-033C,2026-06-12T05:24:11.995776,14.88220526,.00464042,97.7868,316.0249,85.2334,275.4179,0,U,40012,999,64542,.33074572E-3,.3057E-4,0
DUCHIFAT-1,2014-033M,2026-06-12T02:17:29.532480,15.63580933,.00039582,98.0477,221.5443,124.7307,235.4323,0,U,40021,999,65495,.10168386E-2,.95136E-3,0
QB50P1,2014-033R,2026-06-12T06:32:59.055936,15.18187953,.00073508,98.0962,174.0743,234.6928,125.3617,0,U,40025,999,65228,.40334383E-3,.8177E-4,0
LILACSAT-2,2015-049K,2026-06-12T19:43:14.434176,15.51306623,.0005323,97.4655,200.4974,266.0927,93.9716,0,U,40908,999,59507,.31865E-3,.1863E-3,0
FOX-1A (AO-85),2015-058D,2026-06-11T17:14:16.526976,14.90943463,.0130128,64.7758,295.9784,58.7261,302.6519,0,U,40967,999,11275,.20996848E-3,.2264E-4,0
CAS-2T & KS-1Q,2016-066G,2026-06-12T19:23:21.621696,14.44680695,.0342652,98.3820,239.5941,142.7227,219.8287,0,U,41847,999,50416,.23742E-3,.1644E-4,0
RADFXSAT (FOX-1B),2017-073E,2026-06-12T04:20:12.518016,15.12639688,.01503473,97.4717,30.4982,346.5871,13.1381,0,U,43017,999,46463,.43794622E-3,.10038E-3,0
DIWATA-2B,2018-084H,2026-06-12T20:02:36.276576,15.00433168,.0012232,98.1180,359.8551,184.2462,175.8658,0,U,43678,999,41556,.21983E-3,.2703E-4,0
ES'HAIL 2,2018-090A,2026-06-12T18:38:38.860224,1.00268357,.0001494,0.0020,358.2401,123.3765,84.9580,0,U,43700,999,2763,0,.158E-5,0
FOX-1CLIFF (AO-95),2018-099N,2026-06-12T03:53:04.497504,15.26608215,.00085134,97.4395,223.4266,16.6170,343.5346,0,U,43770,999,41245,.46305131E-3,.12073E-3,0
ITASAT,2018-099AE,2026-06-12T01:56:51.893952,15.18993689,.00126633,97.4034,214.6947,18.3409,341.8279,0,U,43786,999,41213,.30910923E-3,.6413E-4,0
JY1SAT (JO-97),2018-099AX,2026-06-12T03:17:01.038912,15.33493153,.00041268,97.4133,225.9535,287.1205,72.9585,0,U,43803,999,41285,.48284335E-3,.1557E-3,0
UWE-4,2018-111E,2026-06-12T00:53:21.030144,15.45812047,.00064463,97.5852,91.1918,4.5905,355.5402,0,U,43880,999,40998,.78107874E-3,.37924E-3,0
TIANYAN 01,2019-093C,2026-06-12T19:17:49.830144,14.86510113,.0014972,97.7533,236.1427,99.7681,260.5226,0,U,44881,999,35076,.44917E-4,.345E-5,0
RS-44 & BREEZE-KM R/B,2019-096E,2026-06-12T20:40:39.983232,12.79748794,.0218,82.5218,342.5799,154.2510,206.9640,0,U,44909,999,30179,.79705E-4,.32E-6,0
SALSAT,2020-068K,2026-06-12T18:18:42.355008,15.29738569,.0008406,97.8846,166.5583,326.8032,33.2678,0,U,46495,999,31468,.2979E-3,.8507E-4,0
XW-3 (CAS-9),2021-131B,2026-06-12T21:20:48.924096,14.41353089,.0005304,98.4976,256.3023,106.1028,254.0745,0,U,50466,999,23449,.11807E-3,.338E-5,0
GREENCUBE (IO-117),2022-080E,2026-06-01T11:09:37.753056,6.42583280,.00088692,70.1435,303.7143,293.3663,66.6064,0,U,53109,999,9105,0,-.3E-7,0
UMKA 1 (RS40S),2023-091G,2026-06-12T19:36:38.043072,15.20768856,.0014072,97.5058,222.5309,131.2604,228.9846,0,U,57172,999,16334,.27774E-3,.6063E-4,0
CUBESX-HSE 3 (RS42S),2023-091N,2026-06-12T20:39:18.178848,15.31109376,.001212,97.5101,229.3931,107.9696,252.2867,0,U,57178,999,16376,.4866E-3,.14589E-3,0
MONITOR-3 (RS58S),2023-091Q,2026-06-12T19:26:32.850816,15.27755885,.0013115,97.5092,227.2239,114.3240,245.9370,0,U,57180,999,16362,.40567E-3,.10956E-3,0
MONITOR-4 (RS57S),2023-091S,2026-06-12T18:56:44.515104,15.27844651,.0013121,97.5086,227.1740,114.6390,245.6218,0,U,57182,999,16362,.40797E-3,.11048E-3,0
MONITOR-2 (RS39S),2023-091U,2026-06-12T19:59:21.785856,15.18871537,.0012598,97.5079,222.1435,124.4205,235.8222,0,U,57184,999,16329,.25893E-3,.534E-4,0
SVYATOBOR 1 (RS60S),2023-091X,2026-06-12T19:10:10.932096,15.26542243,.0010924,97.5097,227.5912,107.5280,252.7153,0,U,57187,999,16364,.37179E-3,.9662E-4,0
VIZARD-METEO (RS38S),2023-091Z,2026-06-12T20:20:55.453920,15.35892638,.0008515,97.5101,233.2457,90.5208,269.7011,0,U,57189,999,16402,.49908E-3,.1739E-3,0
POLYTECH-UNIVERSE 3 (RS46S),2023-091AB,2026-06-12T20:39:21.742848,15.19072560,.001663,97.5055,221.6758,140.6195,219.6252,0,U,57191,999,16329,.24839E-3,.5157E-4,0
UTMN 2 (RS27S),2023-091AP,2026-06-12T19:33:58.724928,15.31947365,.0009441,97.5096,230.9756,96.7900,263.4416,0,U,57203,999,16387,.44633E-3,.13715E-3,0
